{"type": "FeatureCollection", "features": [{"type": "Feature", "properties": {"id": "Ebe7e65b8ec", "municipio": "Rio Preto da Eva", "primeira_deteccao": "2026-09-26T05:10:00Z", "ultima_deteccao": "2026-09-26T05:10:00Z", "duracao_h": 0.0, "satelites": ["NOAA-21"], "satelite_primeira": "NOAA-21", "n_deteccoes": 1, "n_pixels": 1, "area_pelo_sensor": "VIIRS", "confianca": "nominal", "frp_max": 1.65, "lat": -2.71108, "lon": -59.76682, "temp_superficie": null, "status": "extinto_estimado", "extincao_apos": "2026-09-26T05:10:00Z", "extincao_ate": "2026-09-26T06:03:00Z", "criterio": "2 passagens polares sem detecção", "passagens_sem_deteccao": [{"satelite": "NOAA-20", "hora": "2026-09-26T06:03:00Z"}, {"satelite": "TERRA", "hora": "2026-09-26T12:40:00Z"}]}, "geometry": {"type": "Polygon", "coordinates": [[[-59.76475156919957, -2.712831706791232], [-59.76475156919957, -2.7093282932087677], [-59.76888843080044, -2.7093282932087677], [-59.76888843080044, -2.712831706791232], [-59.76475156919957, -2.712831706791232]]]}}, {"type": "Feature", "properties": {"id": "E915ca1e12e", "municipio": "Itacoatiara", "primeira_deteccao": "2026-09-24T19:34:00Z", "ultima_deteccao": "2026-09-24T19:34:00Z", "duracao_h": 0.0, "satelites": ["AQUA"], "satelite_primeira": "AQUA", "n_deteccoes": 1, "n_pixels": 1, "area_pelo_sensor": "MODIS", "confianca": "nominal", "frp_max": 8.39, "lat": -3.55265, "lon": -58.48736, "temp_superficie": null, "status": "extinto_estimado", "extincao_apos": "2026-09-24T19:34:00Z", "extincao_ate": "2026-09-25T01:20:00Z", "criterio": "14 passagens polares sem detecção", "passagens_sem_deteccao": [{"satelite": "TERRA", "hora": "2026-09-25T01:20:00Z"}, {"satelite": "METOP-C", "hora": "2026-09-25T01:57:00Z"}, {"satelite": "NOAA-20", "hora": "2026-09-25T04:44:00Z"}, {"satelite": "NOAA-21", "hora": "2026-09-25T05:27:00Z"}, {"satelite": "TERRA", "hora": "2026-09-25T12:02:00Z"}, {"satelite": "NOAA-21", "hora": "2026-09-25T16:26:00Z"}, {"satelite": "NOAA-20", "hora": "2026-09-25T17:22:00Z"}, {"satelite": "NOAA-21", "hora": "2026-09-25T18:06:00Z"}, {"satelite": "AQUA", "hora": "2026-09-25T20:12:00Z"}, {"satelite": "TERRA", "hora": "2026-09-26T00:22:00Z"}, {"satelite": "NOAA-20", "hora": "2026-09-26T04:23:00Z"}, {"satelite": "NOAA-21", "hora": "2026-09-26T05:08:00Z"}, {"satelite": "NOAA-20", "hora": "2026-09-26T06:03:00Z"}, {"satelite": "TERRA", "hora": "2026-09-26T12:40:00Z"}]}, "geometry": {"type": "Polygon", "coordinates": [[[-58.482724789866026, -3.5571864714337047], [-58.482724789866026, -3.548113528566295], [-58.49199521013398, -3.548113528566295], [-58.49199521013398, -3.5571864714337047], [-58.482724789866026, -3.5571864714337047]]]}}, {"type": "Feature", "properties": {"id": "E21581df0aa", "municipio": "Itacoatiara", "primeira_deteccao": "2026-09-24T19:34:00Z", "ultima_deteccao": "2026-09-24T19:34:00Z", "duracao_h": 0.0, "satelites": ["AQUA"], "satelite_primeira": "AQUA", "n_deteccoes": 1, "n_pixels": 1, "area_pelo_sensor": "MODIS", "confianca": "nominal", "frp_max": 16.51, "lat": -3.40039, "lon": -58.45248, "temp_superficie": null, "status": "extinto_estimado", "extincao_apos": "2026-09-24T19:34:00Z", "extincao_ate": "2026-09-25T01:20:00Z", "criterio": "14 passagens polares sem detecção", "passagens_sem_deteccao": [{"satelite": "TERRA", "hora": "2026-09-25T01:20:00Z"}, {"satelite": "METOP-C", "hora": "2026-09-25T01:57:00Z"}, {"satelite": "NOAA-20", "hora": "2026-09-25T04:44:00Z"}, {"satelite": "NOAA-21", "hora": "2026-09-25T05:27:00Z"}, {"satelite": "TERRA", "hora": "2026-09-25T12:02:00Z"}, {"satelite": "NOAA-21", "hora": "2026-09-25T16:26:00Z"}, {"satelite": "NOAA-20", "hora": "2026-09-25T17:22:00Z"}, {"satelite": "NOAA-21", "hora": "2026-09-25T18:06:00Z"}, {"satelite": "AQUA", "hora": "2026-09-25T20:12:00Z"}, {"satelite": "TERRA", "hora": "2026-09-26T00:22:00Z"}, {"satelite": "NOAA-20", "hora": "2026-09-26T04:23:00Z"}, {"satelite": "NOAA-21", "hora": "2026-09-26T05:08:00Z"}, {"satelite": "NOAA-20", "hora": "2026-09-26T06:03:00Z"}, {"satelite": "TERRA", "hora": "2026-09-26T12:40:00Z"}]}, "geometry": {"type": "Polygon", "coordinates": [[[-58.44789053290291, -3.4049264714337046], [-58.44789053290291, -3.395853528566295], [-58.45706946709709, -3.395853528566295], [-58.45706946709709, -3.4049264714337046], [-58.44789053290291, -3.4049264714337046]]]}}, {"type": "Feature", "properties": {"id": "E054a4eddd6", "municipio": "Careiro da Várzea", "primeira_deteccao": "2026-09-24T19:34:00Z", "ultima_deteccao": "2026-09-24T19:34:00Z", "duracao_h": 0.0, "satelites": ["AQUA"], "satelite_primeira": "AQUA", "n_deteccoes": 1, "n_pixels": 1, "area_pelo_sensor": "MODIS", "confianca": "nominal", "frp_max": 13.22, "lat": -3.29315, "lon": -59.42585, "temp_superficie": {"valor_c": 40.1, "cena": {"id": "LC09_L2SP_230062_20260910_02_T1", "satelite": "Landsat 9", "sensor": "TIRS", "data_hora_utc": "2026-09-10T14:06:43Z", "hora_local": "10/09/2026 10:06", "orbita_ponto": "230/062", "nuvem_pct": 20.61}}, "status": "extinto_estimado", "extincao_apos": "2026-09-24T19:34:00Z", "extincao_ate": "2026-09-25T01:20:00Z", "criterio": "14 passagens polares sem detecção", "passagens_sem_deteccao": [{"satelite": "TERRA", "hora": "2026-09-25T01:20:00Z"}, {"satelite": "METOP-C", "hora": "2026-09-25T01:57:00Z"}, {"satelite": "NOAA-20", "hora": "2026-09-25T04:44:00Z"}, {"satelite": "NOAA-21", "hora": "2026-09-25T05:27:00Z"}, {"satelite": "TERRA", "hora": "2026-09-25T12:02:00Z"}, {"satelite": "NOAA-21", "hora": "2026-09-25T16:26:00Z"}, {"satelite": "NOAA-20", "hora": "2026-09-25T17:22:00Z"}, {"satelite": "NOAA-21", "hora": "2026-09-25T18:06:00Z"}, {"satelite": "AQUA", "hora": "2026-09-25T20:12:00Z"}, {"satelite": "TERRA", "hora": "2026-09-26T00:22:00Z"}, {"satelite": "NOAA-20", "hora": "2026-09-26T04:23:00Z"}, {"satelite": "NOAA-21", "hora": "2026-09-26T05:08:00Z"}, {"satelite": "NOAA-20", "hora": "2026-09-26T06:03:00Z"}, {"satelite": "TERRA", "hora": "2026-09-26T12:40:00Z"}]}, "geometry": {"type": "Polygon", "coordinates": [[[-59.420901116404245, -3.2978661336687027], [-59.420901116404245, -3.288433866331297], [-59.43079888359575, -3.288433866331297], [-59.43079888359575, -3.2978661336687027], [-59.420901116404245, -3.2978661336687027]]]}}, {"type": "Feature", "properties": {"id": "E05bf5644f9", "municipio": "Itacoatiara", "primeira_deteccao": "2026-09-24T19:34:00Z", "ultima_deteccao": "2026-09-24T19:34:00Z", "duracao_h": 0.0, "satelites": ["AQUA"], "satelite_primeira": "AQUA", "n_deteccoes": 2, "n_pixels": 2, "area_pelo_sensor": "MODIS", "confianca": "alta", "frp_max": 56.67, "lat": -3.18915, "lon": -58.65234, "temp_superficie": null, "status": "extinto_estimado", "extincao_apos": "2026-09-24T19:34:00Z", "extincao_ate": "2026-09-25T01:20:00Z", "criterio": "14 passagens polares sem detecção", "passagens_sem_deteccao": [{"satelite": "TERRA", "hora": "2026-09-25T01:20:00Z"}, {"satelite": "METOP-C", "hora": "2026-09-25T01:57:00Z"}, {"satelite": "NOAA-20", "hora": "2026-09-25T04:44:00Z"}, {"satelite": "NOAA-21", "hora": "2026-09-25T05:27:00Z"}, {"satelite": "TERRA", "hora": "2026-09-25T12:02:00Z"}, {"satelite": "NOAA-21", "hora": "2026-09-25T16:26:00Z"}, {"satelite": "NOAA-20", "hora": "2026-09-25T17:22:00Z"}, {"satelite": "NOAA-21", "hora": "2026-09-25T18:06:00Z"}, {"satelite": "AQUA", "hora": "2026-09-25T20:12:00Z"}, {"satelite": "TERRA", "hora": "2026-09-26T00:22:00Z"}, {"satelite": "NOAA-20", "hora": "2026-09-26T04:23:00Z"}, {"satelite": "NOAA-21", "hora": "2026-09-26T05:08:00Z"}, {"satelite": "NOAA-20", "hora": "2026-09-26T06:03:00Z"}, {"satelite": "TERRA", "hora": "2026-09-26T12:40:00Z"}]}, "geometry": {"type": "Polygon", "coordinates": [[[-58.652196518685884, -3.194391386992454], [-58.661463481314115, -3.194391386992454], [-58.661463481314115, -3.185228613007546], [-58.65247347536627, -3.185228613007546], [-58.65247347536627, -3.183908613007546], [-58.64320652463373, -3.183908613007546], [-58.64320652463373, -3.193071386992454], [-58.652196518685884, -3.193071386992454], [-58.652196518685884, -3.194391386992454]]]}}, {"type": "Feature", "properties": {"id": "Ee64d866f99", "municipio": "Itacoatiara", "primeira_deteccao": "2026-09-24T19:34:00Z", "ultima_deteccao": "2026-09-24T19:34:00Z", "duracao_h": 0.0, "satelites": ["AQUA"], "satelite_primeira": "AQUA", "n_deteccoes": 1, "n_pixels": 1, "area_pelo_sensor": "MODIS", "confianca": "nominal", "frp_max": 10.74, "lat": -3.15925, "lon": -58.63381, "temp_superficie": null, "status": "extinto_estimado", "extincao_apos": "2026-09-24T19:34:00Z", "extincao_ate": "2026-09-25T01:20:00Z", "criterio": "14 passagens polares sem detecção", "passagens_sem_deteccao": [{"satelite": "TERRA", "hora": "2026-09-25T01:20:00Z"}, {"satelite": "METOP-C", "hora": "2026-09-25T01:57:00Z"}, {"satelite": "NOAA-20", "hora": "2026-09-25T04:44:00Z"}, {"satelite": "NOAA-21", "hora": "2026-09-25T05:27:00Z"}, {"satelite": "TERRA", "hora": "2026-09-25T12:02:00Z"}, {"satelite": "NOAA-21", "hora": "2026-09-25T16:26:00Z"}, {"satelite": "NOAA-20", "hora": "2026-09-25T17:22:00Z"}, {"satelite": "NOAA-21", "hora": "2026-09-25T18:06:00Z"}, {"satelite": "AQUA", "hora": "2026-09-25T20:12:00Z"}, {"satelite": "TERRA", "hora": "2026-09-26T00:22:00Z"}, {"satelite": "NOAA-20", "hora": "2026-09-26T04:23:00Z"}, {"satelite": "NOAA-21", "hora": "2026-09-26T05:08:00Z"}, {"satelite": "NOAA-20", "hora": "2026-09-26T06:03:00Z"}, {"satelite": "TERRA", "hora": "2026-09-26T12:40:00Z"}]}, "geometry": {"type": "Polygon", "coordinates": [[[-58.62917665575299, -3.163786471433705], [-58.62917665575299, -3.1547135285662953], [-58.638443344247, -3.1547135285662953], [-58.638443344247, -3.163786471433705], [-58.62917665575299, -3.163786471433705]]]}}, {"type": "Feature", "properties": {"id": "Ee0718e6c38", "municipio": "Itacoatiara", "primeira_deteccao": "2026-09-24T19:34:00Z", "ultima_deteccao": "2026-09-24T19:34:00Z", "duracao_h": 0.0, "satelites": ["AQUA"], "satelite_primeira": "AQUA", "n_deteccoes": 1, "n_pixels": 1, "area_pelo_sensor": "MODIS", "confianca": "nominal", "frp_max": 8.03, "lat": -3.07813, "lon": -58.40646, "temp_superficie": null, "status": "extinto_estimado", "extincao_apos": "2026-09-24T19:34:00Z", "extincao_ate": "2026-09-25T01:20:00Z", "criterio": "14 passagens polares sem detecção", "passagens_sem_deteccao": [{"satelite": "TERRA", "hora": "2026-09-25T01:20:00Z"}, {"satelite": "METOP-C", "hora": "2026-09-25T01:57:00Z"}, {"satelite": "NOAA-20", "hora": "2026-09-25T04:44:00Z"}, {"satelite": "NOAA-21", "hora": "2026-09-25T05:27:00Z"}, {"satelite": "TERRA", "hora": "2026-09-25T12:02:00Z"}, {"satelite": "NOAA-21", "hora": "2026-09-25T16:26:00Z"}, {"satelite": "NOAA-20", "hora": "2026-09-25T17:22:00Z"}, {"satelite": "NOAA-21", "hora": "2026-09-25T18:06:00Z"}, {"satelite": "AQUA", "hora": "2026-09-25T20:12:00Z"}, {"satelite": "TERRA", "hora": "2026-09-26T00:22:00Z"}, {"satelite": "NOAA-20", "hora": "2026-09-26T04:23:00Z"}, {"satelite": "NOAA-21", "hora": "2026-09-26T05:08:00Z"}, {"satelite": "NOAA-20", "hora": "2026-09-26T06:03:00Z"}, {"satelite": "TERRA", "hora": "2026-09-26T12:40:00Z"}]}, "geometry": {"type": "Polygon", "coordinates": [[[-58.401871993613874, -3.0826664714337046], [-58.401871993613874, -3.073593528566295], [-58.41104800638613, -3.073593528566295], [-58.41104800638613, -3.0826664714337046], [-58.401871993613874, -3.0826664714337046]]]}}, {"type": "Feature", "properties": {"id": "E579ab0bd14", "municipio": "Itacoatiara", "primeira_deteccao": "2026-09-24T19:34:00Z", "ultima_deteccao": "2026-09-24T19:34:00Z", "duracao_h": 0.0, "satelites": ["AQUA"], "satelite_primeira": "AQUA", "n_deteccoes": 1, "n_pixels": 1, "area_pelo_sensor": "MODIS", "confianca": "nominal", "frp_max": 10.39, "lat": -3.06819, "lon": -59.27711, "temp_superficie": {"valor_c": 48.3, "cena": {"id": "LC09_L2SP_230062_20260910_02_T1", "satelite": "Landsat 9", "sensor": "TIRS", "data_hora_utc": "2026-09-10T14:06:43Z", "hora_local": "10/09/2026 10:06", "orbita_ponto": "230/062", "nuvem_pct": 20.61}}, "status": "extinto_estimado", "extincao_apos": "2026-09-24T19:34:00Z", "extincao_ate": "2026-09-25T01:20:00Z", "criterio": "14 passagens polares sem detecção", "passagens_sem_deteccao": [{"satelite": "TERRA", "hora": "2026-09-25T01:20:00Z"}, {"satelite": "METOP-C", "hora": "2026-09-25T01:57:00Z"}, {"satelite": "NOAA-20", "hora": "2026-09-25T04:44:00Z"}, {"satelite": "NOAA-21", "hora": "2026-09-25T05:27:00Z"}, {"satelite": "TERRA", "hora": "2026-09-25T12:02:00Z"}, {"satelite": "NOAA-21", "hora": "2026-09-25T16:26:00Z"}, {"satelite": "NOAA-20", "hora": "2026-09-25T17:22:00Z"}, {"satelite": "NOAA-21", "hora": "2026-09-25T18:06:00Z"}, {"satelite": "AQUA", "hora": "2026-09-25T20:12:00Z"}, {"satelite": "TERRA", "hora": "2026-09-26T00:22:00Z"}, {"satelite": "NOAA-20", "hora": "2026-09-26T04:23:00Z"}, {"satelite": "NOAA-21", "hora": "2026-09-26T05:08:00Z"}, {"satelite": "NOAA-20", "hora": "2026-09-26T06:03:00Z"}, {"satelite": "TERRA", "hora": "2026-09-26T12:40:00Z"}]}, "geometry": {"type": "Polygon", "coordinates": [[[-59.272252156132154, -3.0728612181099533], [-59.272252156132154, -3.0635187818900467], [-59.28196784386785, -3.0635187818900467], [-59.28196784386785, -3.0728612181099533], [-59.272252156132154, -3.0728612181099533]]]}}, {"type": "Feature", "properties": {"id": "Edc1844eda9", "municipio": "Itacoatiara", "primeira_deteccao": "2026-09-24T19:34:00Z", "ultima_deteccao": "2026-09-24T19:34:00Z", "duracao_h": 0.0, "satelites": ["AQUA"], "satelite_primeira": "AQUA", "n_deteccoes": 4, "n_pixels": 4, "area_pelo_sensor": "MODIS", "confianca": "alta", "frp_max": 183.79, "lat": -3.03696, "lon": -59.20522, "temp_superficie": {"valor_c": 41.0, "cena": {"id": "LC09_L2SP_230062_20260910_02_T1", "satelite": "Landsat 9", "sensor": "TIRS", "data_hora_utc": "2026-09-10T14:06:43Z", "hora_local": "10/09/2026 10:06", "orbita_ponto": "230/062", "nuvem_pct": 20.61}}, "status": "extinto_estimado", "extincao_apos": "2026-09-24T19:34:00Z", "extincao_ate": "2026-09-25T01:20:00Z", "criterio": "14 passagens polares sem detecção", "passagens_sem_deteccao": [{"satelite": "TERRA", "hora": "2026-09-25T01:20:00Z"}, {"satelite": "METOP-C", "hora": "2026-09-25T01:57:00Z"}, {"satelite": "NOAA-20", "hora": "2026-09-25T04:44:00Z"}, {"satelite": "NOAA-21", "hora": "2026-09-25T05:27:00Z"}, {"satelite": "TERRA", "hora": "2026-09-25T12:02:00Z"}, {"satelite": "NOAA-21", "hora": "2026-09-25T16:26:00Z"}, {"satelite": "NOAA-20", "hora": "2026-09-25T17:22:00Z"}, {"satelite": "NOAA-21", "hora": "2026-09-25T18:06:00Z"}, {"satelite": "AQUA", "hora": "2026-09-25T20:12:00Z"}, {"satelite": "TERRA", "hora": "2026-09-26T00:22:00Z"}, {"satelite": "NOAA-20", "hora": "2026-09-26T04:23:00Z"}, {"satelite": "NOAA-21", "hora": "2026-09-26T05:08:00Z"}, {"satelite": "NOAA-20", "hora": "2026-09-26T06:03:00Z"}, {"satelite": "TERRA", "hora": "2026-09-26T12:40:00Z"}]}, "geometry": {"type": "Polygon", "coordinates": [[[-59.21903274012397, -3.0452163025512036], [-59.21903274012397, -3.0359636974487962], [-59.20969273405725, -3.0359636974487962], [-59.20969273405725, -3.0348263025512034], [-59.21104269384514, -3.0348263025512034], [-59.21104269384514, -3.025573697448796], [-59.20141730615486, -3.025573697448796], [-59.20141730615486, -3.034603697448796], [-59.200362728037824, -3.034603697448796], [-59.200362728037824, -3.0332536974487962], [-59.19073727196217, -3.0332536974487962], [-59.19073727196217, -3.0425063025512036], [-59.20006726594276, -3.0425063025512036], [-59.20006726594276, -3.0438563025512035], [-59.20940725987602, -3.0438563025512035], [-59.20940725987602, -3.0452163025512036], [-59.21903274012397, -3.0452163025512036]]]}}, {"type": "Feature", "properties": {"id": "E6f3902443f", "municipio": "Itacoatiara", "primeira_deteccao": "2026-09-24T19:34:00Z", "ultima_deteccao": "2026-09-24T19:34:00Z", "duracao_h": 0.0, "satelites": ["AQUA"], "satelite_primeira": "AQUA", "n_deteccoes": 1, "n_pixels": 1, "area_pelo_sensor": "MODIS", "confianca": "nominal", "frp_max": 9.44, "lat": -2.88947, "lon": -59.19138, "temp_superficie": null, "status": "extinto_estimado", "extincao_apos": "2026-09-24T19:34:00Z", "extincao_ate": "2026-09-25T01:20:00Z", "criterio": "14 passagens polares sem detecção", "passagens_sem_deteccao": [{"satelite": "TERRA", "hora": "2026-09-25T01:20:00Z"}, {"satelite": "METOP-C", "hora": "2026-09-25T01:57:00Z"}, {"satelite": "NOAA-20", "hora": "2026-09-25T04:44:00Z"}, {"satelite": "NOAA-21", "hora": "2026-09-25T05:27:00Z"}, {"satelite": "TERRA", "hora": "2026-09-25T12:02:00Z"}, {"satelite": "NOAA-21", "hora": "2026-09-25T16:26:00Z"}, {"satelite": "NOAA-20", "hora": "2026-09-25T17:22:00Z"}, {"satelite": "NOAA-21", "hora": "2026-09-25T18:06:00Z"}, {"satelite": "AQUA", "hora": "2026-09-25T20:12:00Z"}, {"satelite": "TERRA", "hora": "2026-09-26T00:22:00Z"}, {"satelite": "NOAA-20", "hora": "2026-09-26T04:23:00Z"}, {"satelite": "NOAA-21", "hora": "2026-09-26T05:08:00Z"}, {"satelite": "NOAA-20", "hora": "2026-09-26T06:03:00Z"}, {"satelite": "TERRA", "hora": "2026-09-26T12:40:00Z"}]}, "geometry": {"type": "Polygon", "coordinates": [[[-59.18656791731689, -2.894096302551204], [-59.18656791731689, -2.8848436974487965], [-59.19619208268311, -2.8848436974487965], [-59.19619208268311, -2.894096302551204], [-59.18656791731689, -2.894096302551204]]]}}, {"type": "Feature", "properties": {"id": "E81d82540e9", "municipio": "Presidente Figueiredo", "primeira_deteccao": "2026-09-24T19:34:00Z", "ultima_deteccao": "2026-09-24T19:34:00Z", "duracao_h": 0.0, "satelites": ["AQUA"], "satelite_primeira": "AQUA", "n_deteccoes": 2, "n_pixels": 2, "area_pelo_sensor": "MODIS", "confianca": "alta", "frp_max": 19.39, "lat": -2.16116, "lon": -59.2341, "temp_superficie": {"valor_c": 38.6, "cena": {"id": "LC09_L2SP_230062_20260910_02_T1", "satelite": "Landsat 9", "sensor": "TIRS", "data_hora_utc": "2026-09-10T14:06:43Z", "hora_local": "10/09/2026 10:06", "orbita_ponto": "230/062", "nuvem_pct": 20.61}}, "status": "extinto_estimado", "extincao_apos": "2026-09-24T19:34:00Z", "extincao_ate": "2026-09-25T01:20:00Z", "criterio": "14 passagens polares sem detecção", "passagens_sem_deteccao": [{"satelite": "TERRA", "hora": "2026-09-25T01:20:00Z"}, {"satelite": "METOP-C", "hora": "2026-09-25T01:57:00Z"}, {"satelite": "NOAA-20", "hora": "2026-09-25T04:44:00Z"}, {"satelite": "NOAA-21", "hora": "2026-09-25T05:27:00Z"}, {"satelite": "TERRA", "hora": "2026-09-25T12:02:00Z"}, {"satelite": "NOAA-21", "hora": "2026-09-25T16:26:00Z"}, {"satelite": "NOAA-20", "hora": "2026-09-25T17:22:00Z"}, {"satelite": "NOAA-21", "hora": "2026-09-25T18:06:00Z"}, {"satelite": "AQUA", "hora": "2026-09-25T20:12:00Z"}, {"satelite": "TERRA", "hora": "2026-09-26T00:22:00Z"}, {"satelite": "NOAA-20", "hora": "2026-09-26T04:23:00Z"}, {"satelite": "NOAA-21", "hora": "2026-09-26T05:08:00Z"}, {"satelite": "NOAA-20", "hora": "2026-09-26T06:03:00Z"}, {"satelite": "TERRA", "hora": "2026-09-26T12:40:00Z"}]}, "geometry": {"type": "Polygon", "coordinates": [[[-59.228675547767835, -2.161023697448796], [-59.228675547767835, -2.1702763025512035], [-59.23820445223217, -2.1702763025512035], [-59.23820445223217, -2.1612963025512038], [-59.239524424052505, -2.1612963025512038], [-59.239524424052505, -2.1520436974487964], [-59.2299955759475, -2.1520436974487964], [-59.2299955759475, -2.161023697448796], [-59.228675547767835, -2.161023697448796]]]}}]}